ONEWEB-0228             
1 48780U 21045P   24100.39880146  .00000146  00000+0  35346-3 0  9999
2 48780  87.9007  58.1360 0001802  80.1840 279.9494 13.15549968139306
